{
"type": "FeatureCollection",
"name": "rail_axis",
"crs": { "type": "name", "properties": { "name": "urn:ogc:def:crs:OGC:1.3:CRS84" } },
"features": [
{ "type": "Feature", "properties": { "fid": 145, "osm_id": "23753393", "code": 6101, "fclass": "rail", "name": "Línea Torralba-Soria", "layer": 1, "bridge": "T", "tunnel": "F", "path": "/vsizip/C:\\Users\\heras\\Downloads\\castilla-y-leon-260419-free.gpkg.zip/castilla-y-leon.gpkg|layername=gis_osm_railways_free", "segment_id": "segment_001" }, "geometry": { "type": "LineString", "coordinates": [ [ -2.4815828, 41.7521538 ], [ -2.4814943, 41.7522758 ], [ -2.4813526, 41.7524303 ], [ -2.4811389, 41.7526549 ] ] } },
{ "type": "Feature", "properties": { "fid": 149, "osm_id": "23753511", "code": 6101, "fclass": "rail", "name": "Línea Torralba-Soria", "layer": -1, "bridge": "F", "tunnel": "T", "path": "/vsizip/C:\\Users\\heras\\Downloads\\castilla-y-leon-260419-free.gpkg.zip/castilla-y-leon.gpkg|layername=gis_osm_railways_free", "segment_id": "segment_001" }, "geometry": { "type": "LineString", "coordinates": [ [ -2.4828652, 41.7450652 ], [ -2.4825462, 41.7454814 ] ] } },
{ "type": "Feature", "properties": { "fid": 2773, "osm_id": "526784254", "code": 6101, "fclass": "rail", "name": "Línea Torralba-Soria", "layer": 0, "bridge": "F", "tunnel": "F", "path": "/vsizip/C:\\Users\\heras\\Downloads\\castilla-y-leon-260419-free.gpkg.zip/castilla-y-leon.gpkg|layername=gis_osm_railways_free", "segment_id": "segment_001" }, "geometry": { "type": "LineString", "coordinates": [ [ -2.6170281, 41.623168 ], [ -2.6127549, 41.6324907 ], [ -2.6106709, 41.6370382 ], [ -2.6102174, 41.6380356 ], [ -2.6094939, 41.6395845 ], [ -2.6092957, 41.640014 ], [ -2.6082777, 41.6420987 ] ] } },
{ "type": "Feature", "properties": { "fid": 148, "osm_id": "23753429", "code": 6101, "fclass": "rail", "name": "Línea Torralba-Soria", "layer": 0, "bridge": "F", "tunnel": "F", "path": "/vsizip/C:\\Users\\heras\\Downloads\\castilla-y-leon-260419-free.gpkg.zip/castilla-y-leon.gpkg|layername=gis_osm_railways_free", "segment_id": "segment_001" }, "geometry": { "type": "LineString", "coordinates": [ [ -2.4819396, 41.7512661 ], [ -2.4818885, 41.7514923 ], [ -2.481834, 41.7516699 ], [ -2.4817714, 41.7518281 ], [ -2.4816689, 41.7520212 ], [ -2.4815828, 41.7521538 ] ] } },
{ "type": "Feature", "properties": { "fid": 216, "osm_id": "33800241", "code": 6101, "fclass": "rail", "name": "Línea Torralba-Soria", "layer": 0, "bridge": "F", "tunnel": "F", "path": "/vsizip/C:\\Users\\heras\\Downloads\\castilla-y-leon-260419-free.gpkg.zip/castilla-y-leon.gpkg|layername=gis_osm_railways_free", "segment_id": "segment_001" }, "geometry": { "type": "LineString", "coordinates": [ [ -2.4598277, 41.3642765 ], [ -2.458742, 41.365340699999983 ], [ -2.4579603, 41.3661069 ], [ -2.4574524, 41.3666221 ], [ -2.4572027, 41.3669041 ], [ -2.4570295, 41.367143 ], [ -2.456882, 41.367376499999985 ], [ -2.4567412, 41.367634099999989 ], [ -2.4566165, 41.36792 ], [ -2.4565467, 41.3681334 ], [ -2.456477, 41.368385 ], [ -2.4564368, 41.3686165 ], [ -2.4563889, 41.3689423 ], [ -2.4562719, 41.3702109 ], [ -2.4562289, 41.370713899999984 ], [ -2.4561913, 41.3711084 ], [ -2.4561304, 41.371444099999984 ], [ -2.4560894, 41.371624699999984 ], [ -2.4560438, 41.3717767 ], [ -2.4559781, 41.3719709 ], [ -2.4559285, 41.3720907 ], [ -2.4558796, 41.3721914 ], [ -2.4558078, 41.3723433 ], [ -2.4557287, 41.3724912 ], [ -2.455616, 41.3726724 ], [ -2.4554873, 41.372858 ], [ -2.4553639, 41.3730246 ], [ -2.4552472, 41.3731726 ], [ -2.4550836, 41.3733507 ], [ -2.4546072, 41.373844 ], [ -2.4521969, 41.3762705 ], [ -2.4518448, 41.3766315 ], [ -2.4514103, 41.377068199999989 ], [ -2.4511716, 41.3773359 ], [ -2.4509865, 41.3775673 ], [ -2.4508321, 41.3778045 ], [ -2.4506807, 41.37806040000001 ], [ -2.4505627, 41.378314 ], [ -2.4504501, 41.3785914 ], [ -2.4501443, 41.379427 ], [ -2.4497886, 41.3803979 ], [ -2.4492786, 41.3817632 ], [ -2.4487686, 41.3831284 ], [ -2.4477954, 41.3856481 ], [ -2.4474347, 41.3868082 ], [ -2.4471893, 41.387837 ], [ -2.4471134, 41.3886373 ], [ -2.447257, 41.3903966 ], [ -2.4476398, 41.3920392 ], [ -2.4480227, 41.3936638 ], [ -2.4482502, 41.3946102 ], [ -2.448377, 41.3951513 ], [ -2.4484669, 41.395506 ], [ -2.4485383, 41.3957099 ], [ -2.4486277, 41.3959397 ], [ -2.448723, 41.396143200000012 ], [ -2.4488275, 41.3963327 ], [ -2.4489253, 41.3964855 ], [ -2.4489927, 41.3965907 ], [ -2.4491458, 41.3967984 ], [ -2.4493577, 41.3970514 ], [ -2.4495776, 41.39728130000001 ], [ -2.4497989, 41.3974781 ], [ -2.4500454, 41.3976786 ], [ -2.4516164, 41.3988797 ], [ -2.4532859, 41.400173 ], [ -2.4535105, 41.4003667 ], [ -2.4537277, 41.4005679 ], [ -2.4539355, 41.4007989 ], [ -2.4541006, 41.4009924 ], [ -2.4542515, 41.4012017 ], [ -2.4543822, 41.4014068 ], [ -2.4545029, 41.4016261 ], [ -2.4545914, 41.4018253 ], [ -2.4546607, 41.4019941 ], [ -2.4547255, 41.4021854 ], [ -2.4547979, 41.4024349 ], [ -2.4548355, 41.4026301 ], [ -2.4548596, 41.4028292 ], [ -2.4548909, 41.4031416 ], [ -2.4549468, 41.4040132 ], [ -2.4550113, 41.4050715 ], [ -2.4551503, 41.4072432 ], [ -2.4553183, 41.4098664 ], [ -2.455372, 41.4105792 ], [ -2.4554913, 41.4113017 ], [ -2.4556943, 41.4124111 ], [ -2.4559527, 41.4132228 ], [ -2.4568884, 41.4158542 ], [ -2.457824, 41.418485599999983 ], [ -2.4593674, 41.4226485 ], [ -2.4599657, 41.4244608 ], [ -2.4609628, 41.4262875 ], [ -2.4625979, 41.4294038 ], [ -2.4634234, 41.4308571 ], [ -2.4643035, 41.432443 ], [ -2.4650196, 41.43376090000001 ], [ -2.4650273, 41.4337736 ], [ -2.465798, 41.4349927 ] ] } },
{ "type": "Feature", "properties": { "fid": 147, "osm_id": "23753428", "code": 6101, "fclass": "rail", "name": "Línea Torralba-Soria", "layer": 1, "bridge": "T", "tunnel": "F", "path": "/vsizip/C:\\Users\\heras\\Downloads\\castilla-y-leon-260419-free.gpkg.zip/castilla-y-leon.gpkg|layername=gis_osm_railways_free", "segment_id": "segment_001" }, "geometry": { "type": "LineString", "coordinates": [ [ -2.482062, 41.7493494 ], [ -2.4819396, 41.7512661 ] ] } },
{ "type": "Feature", "properties": { "fid": 4305, "osm_id": "1427668689", "code": 6101, "fclass": "rail", "name": "Línea Torralba-Soria", "layer": 0, "bridge": "F", "tunnel": "F", "path": "/vsizip/C:\\Users\\heras\\Downloads\\castilla-y-leon-260419-free.gpkg.zip/castilla-y-leon.gpkg|layername=gis_osm_railways_free", "segment_id": "segment_001" }, "geometry": { "type": "LineString", "coordinates": [ [ -2.4677323, 41.3517223 ], [ -2.4668322, 41.3534393 ], [ -2.4655572, 41.3558618 ], [ -2.4653488, 41.3562577 ], [ -2.4646081, 41.357672 ], [ -2.4638674, 41.3590863 ], [ -2.4630484, 41.3606448 ], [ -2.4628714, 41.3609629 ], [ -2.4627346, 41.3611964 ], [ -2.4625522, 41.3614642 ], [ -2.4623822, 41.3616889 ], [ -2.4622957, 41.3617922 ], [ -2.462166, 41.3619473 ], [ -2.4619747, 41.3621591 ], [ -2.4615839, 41.362553299999988 ], [ -2.4607605, 41.363356499999988 ], [ -2.4598277, 41.3642765 ] ] } },
{ "type": "Feature", "properties": { "fid": 146, "osm_id": "23753394", "code": 6101, "fclass": "rail", "name": "Línea Torralba-Soria", "layer": 0, "bridge": "F", "tunnel": "F", "path": "/vsizip/C:\\Users\\heras\\Downloads\\castilla-y-leon-260419-free.gpkg.zip/castilla-y-leon.gpkg|layername=gis_osm_railways_free", "segment_id": "segment_001" }, "geometry": { "type": "LineString", "coordinates": [ [ -2.4801599, 41.7532755 ], [ -2.4796846, 41.7535001 ], [ -2.4791844, 41.7537297 ], [ -2.4786226, 41.7539887 ], [ -2.4783558, 41.754113799999985 ], [ -2.4781254, 41.7542167 ], [ -2.4746907, 41.7557254 ], [ -2.4744169, 41.7558396 ], [ -2.4741903, 41.7559206 ], [ -2.4739821, 41.7559858 ], [ -2.4736842, 41.756065899999989 ], [ -2.4734026, 41.7561215 ], [ -2.4732035, 41.7561552 ] ] } },
{ "type": "Feature", "properties": { "fid": 4304, "osm_id": "1427668688", "code": 6101, "fclass": "rail", "name": "Línea Torralba-Soria", "layer": 0, "bridge": "F", "tunnel": "F", "path": "/vsizip/C:\\Users\\heras\\Downloads\\castilla-y-leon-260419-free.gpkg.zip/castilla-y-leon.gpkg|layername=gis_osm_railways_free", "segment_id": "segment_001" }, "geometry": { "type": "LineString", "coordinates": [ [ -2.4676322, 41.3476582 ], [ -2.4681564, 41.3486686 ], [ -2.4682378, 41.3488897 ], [ -2.4683027, 41.349085 ], [ -2.4683545, 41.3493436 ], [ -2.4683916, 41.3496397 ], [ -2.4683897, 41.34989 ], [ -2.468373, 41.3500985 ], [ -2.4683379, 41.3503154 ], [ -2.4682804, 41.3505517 ], [ -2.4682064, 41.3507686 ], [ -2.4680823, 41.3510383 ], [ -2.4679341, 41.3513317 ], [ -2.4677323, 41.3517223 ] ] } },
{ "type": "Feature", "properties": { "fid": 4303, "osm_id": "1427668687", "code": 6101, "fclass": "rail", "name": "Línea Torralba-Soria", "layer": 0, "bridge": "F", "tunnel": "F", "path": "/vsizip/C:\\Users\\heras\\Downloads\\castilla-y-leon-260419-free.gpkg.zip/castilla-y-leon.gpkg|layername=gis_osm_railways_free", "segment_id": "segment_001" }, "geometry": { "type": "LineString", "coordinates": [ [ -2.4577909, 41.3189586 ], [ -2.4598668, 41.3209762 ], [ -2.4601946, 41.321343699999986 ], [ -2.4604177, 41.3216084 ], [ -2.4606482, 41.321908799999989 ], [ -2.4608549, 41.3222081 ], [ -2.461072, 41.3225476 ], [ -2.4612564, 41.3228737 ], [ -2.461414, 41.3231825 ], [ -2.4615851, 41.3235717 ], [ -2.4617538, 41.3240419 ], [ -2.4619416, 41.324699099999982 ], [ -2.4620185, 41.325129 ], [ -2.4620927, 41.3257781 ], [ -2.4623271, 41.328539 ], [ -2.4625855, 41.331729 ], [ -2.463105, 41.3379811 ], [ -2.463193, 41.338860599999983 ], [ -2.4632504, 41.3391603 ], [ -2.4633004, 41.33934940000001 ], [ -2.4634171, 41.3396845 ], [ -2.4635412, 41.3399626 ], [ -2.4637227, 41.34032 ], [ -2.4639338, 41.3407232 ], [ -2.4652839, 41.3432608 ], [ -2.4676322, 41.3476582 ] ] } },
{ "type": "Feature", "properties": { "fid": 4302, "osm_id": "1427668686", "code": 6101, "fclass": "rail", "name": "Línea Torralba-Soria", "layer": 0, "bridge": "F", "tunnel": "F", "path": "/vsizip/C:\\Users\\heras\\Downloads\\castilla-y-leon-260419-free.gpkg.zip/castilla-y-leon.gpkg|layername=gis_osm_railways_free", "segment_id": "segment_001" }, "geometry": { "type": "LineString", "coordinates": [ [ -2.4489927, 41.3064631 ], [ -2.4489312, 41.3071198 ], [ -2.4488195, 41.3083133 ], [ -2.4487959, 41.3088047 ], [ -2.4488071, 41.3090441 ], [ -2.4488408, 41.309300399999984 ], [ -2.4488907, 41.3095461 ], [ -2.4489939, 41.30989670000001 ], [ -2.4491611, 41.3102786 ], [ -2.4493586, 41.3106334 ], [ -2.4495797, 41.310957 ], [ -2.4508912, 41.312324 ], [ -2.4546262, 41.315914 ], [ -2.4575091, 41.3186847 ], [ -2.4577176, 41.3188873 ] ] } },
{ "type": "Feature", "properties": { "fid": 151, "osm_id": "23763244", "code": 6101, "fclass": "rail", "name": "Línea Torralba-Soria", "layer": 0, "bridge": "F", "tunnel": "F", "path": "/vsizip/C:\\Users\\heras\\Downloads\\castilla-y-leon-260419-free.gpkg.zip/castilla-y-leon.gpkg|layername=gis_osm_railways_free", "segment_id": "segment_001" }, "geometry": { "type": "LineString", "coordinates": [ [ -2.4953416, 41.2428798 ], [ -2.4948016, 41.2435483 ], [ -2.4946046, 41.2437761 ], [ -2.4943686, 41.244016099999989 ], [ -2.4941164, 41.244246 ], [ -2.4938619, 41.2444511 ], [ -2.493521, 41.2446977 ], [ -2.4931642, 41.244923599999986 ], [ -2.4928531, 41.245093 ], [ -2.4924391, 41.2453128 ], [ -2.4855753, 41.2489065 ], [ -2.4849526, 41.249221 ], [ -2.4848372, 41.249279199999989 ], [ -2.4797095, 41.251868499999986 ], [ -2.478038, 41.2527626 ], [ -2.4771565, 41.2531567 ], [ -2.4764611, 41.2534408 ], [ -2.4756992, 41.253666 ], [ -2.4748363, 41.253950899999985 ], [ -2.4742324, 41.254137199999988 ], [ -2.473342, 41.254427699999987 ], [ -2.4724384, 41.2547078 ], [ -2.4714218, 41.2551614 ], [ -2.4708079, 41.2556014 ], [ -2.4693863, 41.2570085 ], [ -2.4686283, 41.2577637 ], [ -2.4682027, 41.2581031 ], [ -2.4677184, 41.2584342 ], [ -2.4672672, 41.2586977 ], [ -2.4665343, 41.2590489 ], [ -2.4658649, 41.2592964 ], [ -2.464523, 41.2597615 ], [ -2.4611326, 41.2609366 ], [ -2.4602123, 41.261268499999986 ], [ -2.4581039, 41.2621663 ], [ -2.4566421, 41.2628307 ], [ -2.4558283, 41.2631494 ] ] } },
{ "type": "Feature", "properties": { "fid": 150, "osm_id": "23753512", "code": 6101, "fclass": "rail", "name": "Línea Torralba-Soria", "layer": 0, "bridge": "F", "tunnel": "F", "path": "/vsizip/C:\\Users\\heras\\Downloads\\castilla-y-leon-260419-free.gpkg.zip/castilla-y-leon.gpkg|layername=gis_osm_railways_free", "segment_id": "segment_001" }, "geometry": { "type": "LineString", "coordinates": [ [ -2.4825462, 41.7454814 ], [ -2.482407, 41.7457687 ], [ -2.4823412, 41.7459433 ], [ -2.4822967, 41.7461078 ], [ -2.4822675, 41.7462551 ], [ -2.4822412, 41.746490299999984 ], [ -2.4821457, 41.7479846 ], [ -2.482062, 41.7493494 ] ] } },
{ "type": "Feature", "properties": { "fid": 2774, "osm_id": "526784255", "code": 6101, "fclass": "rail", "name": "Línea Torralba-Soria", "layer": 1, "bridge": "T", "tunnel": "F", "path": "/vsizip/C:\\Users\\heras\\Downloads\\castilla-y-leon-260419-free.gpkg.zip/castilla-y-leon.gpkg|layername=gis_osm_railways_free", "segment_id": "segment_001" }, "geometry": { "type": "LineString", "coordinates": [ [ -2.6238316, 41.6167979 ], [ -2.6237276, 41.6168916 ] ] } },
{ "type": "Feature", "properties": { "fid": 4307, "osm_id": "1427668691", "code": 6101, "fclass": "rail", "name": "Línea Torralba-Soria", "layer": 0, "bridge": "F", "tunnel": "F", "path": "/vsizip/C:\\Users\\heras\\Downloads\\castilla-y-leon-260419-free.gpkg.zip/castilla-y-leon.gpkg|layername=gis_osm_railways_free", "segment_id": "segment_001" }, "geometry": { "type": "LineString", "coordinates": [ [ -2.527552, 41.4917762 ], [ -2.5277368, 41.4919463 ], [ -2.5279557, 41.4921269 ], [ -2.5281671, 41.4922876 ], [ -2.5284323, 41.4924644 ], [ -2.5286458, 41.492593 ], [ -2.5289447, 41.4927557 ], [ -2.5292024, 41.492877300000018 ], [ -2.5294624, 41.4929871 ], [ -2.529771, 41.4931063 ], [ -2.5300862, 41.4932068 ], [ -2.5306092, 41.4933566 ] ] } },
{ "type": "Feature", "properties": { "fid": 4306, "osm_id": "1427668690", "code": 6101, "fclass": "rail", "name": "Línea Torralba-Soria", "layer": 0, "bridge": "F", "tunnel": "F", "path": "/vsizip/C:\\Users\\heras\\Downloads\\castilla-y-leon-260419-free.gpkg.zip/castilla-y-leon.gpkg|layername=gis_osm_railways_free", "segment_id": "segment_001" }, "geometry": { "type": "LineString", "coordinates": [ [ -2.4659419, 41.4351927 ], [ -2.4663701, 41.4357878 ], [ -2.4672349, 41.4368846 ], [ -2.4674572, 41.437176400000013 ], [ -2.4677055, 41.4374894 ], [ -2.4679408, 41.4377945 ], [ -2.4684752, 41.4384822 ], [ -2.4690136, 41.439190600000011 ], [ -2.4696325, 41.4399835 ], [ -2.4701849, 41.440691799999989 ], [ -2.4705438, 41.441164 ], [ -2.4712135, 41.4420913 ], [ -2.4714158, 41.4423538 ] ] } },
{ "type": "Feature", "properties": { "fid": 2779, "osm_id": "528475033", "code": 6101, "fclass": "rail", "name": "Línea Torralba-Soria", "layer": 1, "bridge": "T", "tunnel": "F", "path": "/vsizip/C:\\Users\\heras\\Downloads\\castilla-y-leon-260419-free.gpkg.zip/castilla-y-leon.gpkg|layername=gis_osm_railways_free", "segment_id": "segment_001" }, "geometry": { "type": "LineString", "coordinates": [ [ -2.5371364, 41.6888239 ], [ -2.536992, 41.688937899999985 ] ] } },
{ "type": "Feature", "properties": { "fid": 3169, "osm_id": "697649888", "code": 6101, "fclass": "rail", "name": "Línea Torralba-Soria", "layer": 0, "bridge": "F", "tunnel": "F", "path": "/vsizip/C:\\Users\\heras\\Downloads\\castilla-y-leon-260419-free.gpkg.zip/castilla-y-leon.gpkg|layername=gis_osm_railways_free", "segment_id": "segment_001" }, "geometry": { "type": "LineString", "coordinates": [ [ -2.495641, 41.1351815 ], [ -2.4953161, 41.1353599 ], [ -2.4950862, 41.1354759 ], [ -2.4945595, 41.1357352 ], [ -2.4941599, 41.1360013 ] ] } },
{ "type": "Feature", "properties": { "fid": 969, "osm_id": "154384151", "code": 6101, "fclass": "rail", "name": "Línea Torralba-Soria", "layer": 1, "bridge": "T", "tunnel": "F", "path": "/vsizip/C:\\Users\\heras\\Downloads\\castilla-y-leon-260419-free.gpkg.zip/castilla-y-leon.gpkg|layername=gis_osm_railways_free", "segment_id": "segment_001" }, "geometry": { "type": "LineString", "coordinates": [ [ -2.5306092, 41.4933566 ], [ -2.5311265, 41.4935024 ], [ -2.5330589, 41.4940416 ] ] } },
{ "type": "Feature", "properties": { "fid": 4180, "osm_id": "1361474263", "code": 6101, "fclass": "rail", "name": "Línea Torralba-Soria", "layer": 1, "bridge": "T", "tunnel": "F", "path": "/vsizip/C:\\Users\\heras\\Downloads\\castilla-y-leon-260419-free.gpkg.zip/castilla-y-leon.gpkg|layername=gis_osm_railways_free", "segment_id": "segment_001" }, "geometry": { "type": "LineString", "coordinates": [ [ -2.4577176, 41.3188873 ], [ -2.4577909, 41.3189586 ] ] } },
{ "type": "Feature", "properties": { "fid": 1801, "osm_id": "697649888", "code": 6101, "fclass": "rail", "name": "Línea Torralba-Soria", "layer": 0, "bridge": "F", "tunnel": "F", "path": "/vsizip/C:\\Users\\heras\\Downloads\\castilla-la-mancha-260419-free.gpkg.zip/castilla-la-mancha.gpkg|layername=gis_osm_railways_free", "segment_id": "segment_001" }, "geometry": { "type": "LineString", "coordinates": [ [ -2.495641, 41.1351815 ], [ -2.4953161, 41.1353599 ], [ -2.4950862, 41.1354759 ], [ -2.4945595, 41.1357352 ], [ -2.4941599, 41.1360013 ] ] } },
{ "type": "Feature", "properties": { "fid": 4179, "osm_id": "1361474262", "code": 6101, "fclass": "rail", "name": "Línea Torralba-Soria", "layer": 0, "bridge": "F", "tunnel": "F", "path": "/vsizip/C:\\Users\\heras\\Downloads\\castilla-y-leon-260419-free.gpkg.zip/castilla-y-leon.gpkg|layername=gis_osm_railways_free", "segment_id": "segment_001" }, "geometry": { "type": "LineString", "coordinates": [ [ -2.4409316, 41.267668 ], [ -2.4413233, 41.268689899999984 ], [ -2.4414802, 41.269027800000011 ], [ -2.4416187, 41.2692644 ], [ -2.441748, 41.2694499 ], [ -2.4420215, 41.269777 ], [ -2.4422836, 41.2700893 ], [ -2.4427455, 41.270634899999983 ], [ -2.4429658, 41.2709267 ], [ -2.4431456, 41.2712089 ], [ -2.4432722, 41.27147870000001 ], [ -2.443354, 41.2716742 ], [ -2.4434002, 41.2718367 ], [ -2.4434442, 41.272007 ], [ -2.443482, 41.2721899 ], [ -2.4435072, 41.2724375 ], [ -2.4435114, 41.2726867 ], [ -2.4434988, 41.2732221 ], [ -2.4434799, 41.273797 ], [ -2.4434547, 41.274121799999989 ], [ -2.4434148, 41.2743615 ], [ -2.4433414, 41.2746359 ], [ -2.4432554, 41.274859899999988 ], [ -2.4431463, 41.2750822 ], [ -2.4429994, 41.2753251 ], [ -2.4428315, 41.2755648 ], [ -2.4425494, 41.275882799999984 ], [ -2.4415879, 41.2768462 ], [ -2.440346, 41.277960200000017 ], [ -2.4382848, 41.2793026 ], [ -2.4355745, 41.2809182 ], [ -2.4319637, 41.2830706 ], [ -2.4310718, 41.2836039 ], [ -2.4306829, 41.283835 ], [ -2.4304242, 41.2840111 ], [ -2.4302305, 41.28415660000001 ], [ -2.4299783, 41.2843718 ], [ -2.4298302, 41.2845161 ], [ -2.4296854, 41.2846726 ], [ -2.4295633, 41.2848255 ], [ -2.4294079, 41.285045 ], [ -2.4293046, 41.2852143 ], [ -2.429207, 41.2854002 ], [ -2.4291158, 41.2856056 ], [ -2.4290532, 41.285782900000015 ], [ -2.4289905, 41.2860311 ], [ -2.428945, 41.28624270000001 ], [ -2.4289287, 41.286464 ], [ -2.4289189, 41.2866902 ], [ -2.4289319, 41.2869079 ], [ -2.4289547, 41.2870742 ], [ -2.4290101, 41.2873383 ], [ -2.4290751, 41.2875498 ], [ -2.4291419, 41.2877308 ], [ -2.4292314, 41.2879167 ], [ -2.4294266, 41.2882615 ], [ -2.4296724, 41.2885879 ], [ -2.429923, 41.2888679 ], [ -2.4304421, 41.2894023 ], [ -2.4307309, 41.2897031 ], [ -2.430901, 41.2898938 ], [ -2.4310637, 41.2901053 ], [ -2.4311776, 41.290268 ], [ -2.4313216, 41.2905211 ], [ -2.4314563, 41.290835899999983 ], [ -2.431534, 41.2910523 ], [ -2.4317887, 41.2918685 ], [ -2.4318985, 41.292187 ], [ -2.4319799, 41.2923734 ], [ -2.4321019, 41.29259960000001 ], [ -2.4322646, 41.2928552 ], [ -2.4324306, 41.293080099999983 ], [ -2.4325966, 41.2932599 ], [ -2.4328472, 41.2935019 ], [ -2.4330929, 41.2937061 ], [ -2.4334737, 41.2939641 ], [ -2.4338317, 41.2941634 ], [ -2.4342695, 41.2943639 ], [ -2.4346795, 41.2945082 ], [ -2.4351319, 41.294631700000011 ], [ -2.4362887, 41.294891600000014 ], [ -2.4365818, 41.2949642 ], [ -2.4368552, 41.2950339 ], [ -2.4371823, 41.2951464 ], [ -2.4374183, 41.2952393 ], [ -2.4377193, 41.2953823 ], [ -2.4379357, 41.2954985 ], [ -2.4381587, 41.2956354 ], [ -2.4383686, 41.2957785 ], [ -2.4385541, 41.2959252 ], [ -2.4387282, 41.2960829 ], [ -2.4389202, 41.2962785 ], [ -2.4392034, 41.2966025 ], [ -2.4394198, 41.2968739 ], [ -2.4409106, 41.29870840000001 ], [ -2.4411159, 41.2989402 ], [ -2.4413325, 41.2991442 ], [ -2.4415794, 41.299355 ], [ -2.4418532, 41.2995506 ], [ -2.4420731, 41.2996838 ], [ -2.4422796, 41.299795 ], [ -2.4425915, 41.2999485 ], [ -2.4429596, 41.3000901 ], [ -2.4442837, 41.3005841 ], [ -2.4453237, 41.300975199999989 ], [ -2.4463636, 41.3013662 ], [ -2.4467749, 41.3015334 ], [ -2.4470375, 41.3016598 ], [ -2.4472754, 41.3017846 ], [ -2.4475357, 41.3019481 ], [ -2.4477175, 41.3020729 ], [ -2.4479217, 41.3022347 ], [ -2.4480833, 41.3023764 ], [ -2.4482853, 41.3025795 ], [ -2.4484402, 41.3027608 ], [ -2.4485636, 41.3029125 ], [ -2.4486668, 41.3030626 ], [ -2.4487678, 41.3032244 ], [ -2.4488599, 41.3034014 ], [ -2.4489384, 41.3035801 ], [ -2.449008, 41.3037639 ], [ -2.4490663, 41.303978 ], [ -2.4491258, 41.3042899 ], [ -2.4491471, 41.304552899999983 ], [ -2.4491426, 41.304802499999987 ], [ -2.4491112, 41.305197 ], [ -2.4489927, 41.3064631 ] ] } },
{ "type": "Feature", "properties": { "fid": 4317, "osm_id": "1432621334", "code": 6101, "fclass": "rail", "name": "Línea Torralba-Soria", "layer": 0, "bridge": "F", "tunnel": "F", "path": "/vsizip/C:\\Users\\heras\\Downloads\\castilla-y-leon-260419-free.gpkg.zip/castilla-y-leon.gpkg|layername=gis_osm_railways_free", "segment_id": "segment_001" }, "geometry": { "type": "LineString", "coordinates": [ [ -2.5330589, 41.4940416 ], [ -2.5338369, 41.4942435 ], [ -2.5346564, 41.4943788 ], [ -2.5358998, 41.4945032 ], [ -2.5373846, 41.4946544 ], [ -2.5388978, 41.4948052 ], [ -2.5428063, 41.4951957 ], [ -2.5466349, 41.4955813 ], [ -2.5593369, 41.4968605 ], [ -2.5636669, 41.497315199999989 ], [ -2.5669823, 41.4976418 ], [ -2.5679845, 41.4977461 ] ] } },
{ "type": "Feature", "properties": { "fid": 4178, "osm_id": "1361474261", "code": 6101, "fclass": "rail", "name": "Línea Torralba-Soria", "layer": -1, "bridge": "F", "tunnel": "T", "path": "/vsizip/C:\\Users\\heras\\Downloads\\castilla-y-leon-260419-free.gpkg.zip/castilla-y-leon.gpkg|layername=gis_osm_railways_free", "segment_id": "segment_001" }, "geometry": { "type": "LineString", "coordinates": [ [ -2.4732035, 41.7561552 ], [ -2.4729841, 41.756185199999983 ], [ -2.472934, 41.7561958 ], [ -2.4726566, 41.7562334 ], [ -2.4723354, 41.7562785 ], [ -2.4722989, 41.7562836 ], [ -2.4722586, 41.7562922 ], [ -2.4722121, 41.7563073 ], [ -2.4721709, 41.7563222 ], [ -2.4721367, 41.7563354 ], [ -2.472102, 41.7563474 ], [ -2.4720659, 41.756357199999989 ], [ -2.4720326, 41.7563654 ], [ -2.4719949, 41.756373 ] ] } },
{ "type": "Feature", "properties": { "fid": 4316, "osm_id": "1432621333", "code": 6101, "fclass": "rail", "name": "Línea Torralba-Soria", "layer": 0, "bridge": "F", "tunnel": "F", "path": "/vsizip/C:\\Users\\heras\\Downloads\\castilla-y-leon-260419-free.gpkg.zip/castilla-y-leon.gpkg|layername=gis_osm_railways_free", "segment_id": "segment_001" }, "geometry": { "type": "LineString", "coordinates": [ [ -2.499099, 41.463497299999986 ], [ -2.5012161, 41.4651421 ], [ -2.5055542, 41.4685123 ], [ -2.5073008, 41.4703132 ] ] } },
{ "type": "Feature", "properties": { "fid": 4315, "osm_id": "1432621332", "code": 6101, "fclass": "rail", "name": "Línea Torralba-Soria", "layer": 0, "bridge": "F", "tunnel": "F", "path": "/vsizip/C:\\Users\\heras\\Downloads\\castilla-y-leon-260419-free.gpkg.zip/castilla-y-leon.gpkg|layername=gis_osm_railways_free", "segment_id": "segment_001" }, "geometry": { "type": "LineString", "coordinates": [ [ -2.4714158, 41.4423538 ], [ -2.4725315, 41.4438016 ], [ -2.4741571, 41.4458847 ], [ -2.4760594, 41.44834070000001 ], [ -2.477134, 41.449728 ], [ -2.478233, 41.4510439 ], [ -2.4794042, 41.4523141 ], [ -2.4803949, 41.4531816 ], [ -2.4808507, 41.45356120000001 ], [ -2.4812707, 41.4539083 ], [ -2.482813, 41.4550152 ], [ -2.4837087, 41.455658 ], [ -2.4869709, 41.4574223 ], [ -2.4894325, 41.4585946 ], [ -2.4921692, 41.4599045 ], [ -2.495189, 41.4613499 ], [ -2.4971563, 41.4622953 ], [ -2.497568, 41.462499 ], [ -2.497948, 41.4627028 ], [ -2.4983258, 41.462929799999984 ], [ -2.4986548, 41.463152199999989 ], [ -2.499099, 41.463497299999986 ] ] } },
{ "type": "Feature", "properties": { "fid": 3962, "osm_id": "1221521512", "code": 6101, "fclass": "rail", "name": "Línea Torralba-Soria", "layer": 0, "bridge": "F", "tunnel": "F", "path": "/vsizip/C:\\Users\\heras\\Downloads\\castilla-y-leon-260419-free.gpkg.zip/castilla-y-leon.gpkg|layername=gis_osm_railways_free", "segment_id": "segment_001" }, "geometry": { "type": "LineString", "coordinates": [ [ -2.4941599, 41.1360013 ], [ -2.4938883, 41.1361874 ], [ -2.493559, 41.136466799999987 ], [ -2.49328, 41.1367425 ], [ -2.4930417, 41.1370151 ], [ -2.4927572, 41.137446099999984 ], [ -2.4926254, 41.137709 ], [ -2.4925021, 41.1380313 ], [ -2.4924357, 41.1383899 ], [ -2.4924044, 41.138748 ], [ -2.4924359, 41.139246199999988 ], [ -2.4925182, 41.1395625 ], [ -2.4926184, 41.1398878 ], [ -2.4928677, 41.1405289 ], [ -2.4930164, 41.1409039 ], [ -2.4930918, 41.141094 ], [ -2.4933502, 41.1417455 ], [ -2.4935731, 41.142258 ], [ -2.4938436, 41.1428271 ], [ -2.4941277, 41.143353 ], [ -2.4943626, 41.1438002 ], [ -2.4948325, 41.1444588 ], [ -2.4952229, 41.1449517 ] ] } },
{ "type": "Feature", "properties": { "fid": 970, "osm_id": "154384152", "code": 6101, "fclass": "rail", "name": "Línea Torralba-Soria", "layer": 0, "bridge": "F", "tunnel": "F", "path": "/vsizip/C:\\Users\\heras\\Downloads\\castilla-y-leon-260419-free.gpkg.zip/castilla-y-leon.gpkg|layername=gis_osm_railways_free", "segment_id": "segment_001" }, "geometry": { "type": "LineString", "coordinates": [ [ -2.5679845, 41.4977461 ], [ -2.5685094, 41.4978107 ], [ -2.5689526, 41.497882599999983 ], [ -2.5696575, 41.4980696 ], [ -2.5703862, 41.4983524 ], [ -2.5708708, 41.498596099999986 ], [ -2.571332, 41.4988709 ], [ -2.5746021, 41.5011041 ], [ -2.5765439, 41.5020991 ], [ -2.5816283, 41.504280499999986 ], [ -2.5822874, 41.5046845 ], [ -2.5833656, 41.5055816 ], [ -2.5852052, 41.5086238 ], [ -2.5863549, 41.5100396 ], [ -2.5875813, 41.5110536 ], [ -2.5895486, 41.5120868 ], [ -2.5907509, 41.5124373 ], [ -2.5919581, 41.5127248 ], [ -2.5972902, 41.5139808 ], [ -2.5998214, 41.5143284 ], [ -2.6013754, 41.5143949 ], [ -2.6030133, 41.514420800000011 ], [ -2.6092795, 41.5136441 ], [ -2.6096452, 41.5135995 ], [ -2.6100411, 41.5135595 ], [ -2.6103579, 41.5135417 ], [ -2.6106884, 41.513537 ], [ -2.6110864, 41.5135476 ], [ -2.6113398, 41.5135669 ], [ -2.6115675, 41.5135906 ], [ -2.611805, 41.5136202 ], [ -2.6120474, 41.5136599 ], [ -2.612397, 41.5137344 ], [ -2.6126504, 41.5137996 ], [ -2.6128879, 41.5138648 ], [ -2.6131034, 41.5139322 ], [ -2.6133452, 41.5140205 ], [ -2.613565, 41.5141079 ], [ -2.6137986, 41.5142117 ], [ -2.6139996, 41.514306 ], [ -2.6142658, 41.5144548 ], [ -2.6144776, 41.5145838 ], [ -2.6146855, 41.5147246 ], [ -2.6150795, 41.5149959 ], [ -2.6154299, 41.5152449 ], [ -2.6158239, 41.5155266 ], [ -2.6160291, 41.5156596 ], [ -2.6162871, 41.5158127 ], [ -2.6165207, 41.515938699999985 ], [ -2.6168493, 41.5160914 ], [ -2.6171998, 41.5162337 ], [ -2.6174868, 41.51633 ], [ -2.6177775, 41.5164163 ], [ -2.6179771, 41.5164715 ], [ -2.6182209, 41.516527 ], [ -2.6185028, 41.5165826 ], [ -2.6188081, 41.5166302 ], [ -2.619108, 41.516662199999985 ], [ -2.6193508, 41.51668260000001 ], [ -2.6196624, 41.5167 ], [ -2.6199508, 41.516703199999988 ], [ -2.6202709, 41.5166905 ], [ -2.6205486, 41.516669899999982 ], [ -2.6208627, 41.5166336 ], [ -2.6239766, 41.5161283 ], [ -2.6243561, 41.5160698 ], [ -2.6246126, 41.5160381 ], [ -2.6249263, 41.516012699999983 ], [ -2.6252691, 41.5159974 ], [ -2.6256153, 41.5160016 ], [ -2.6260012, 41.5160191 ], [ -2.6262895, 41.5160476 ], [ -2.6265693, 41.5160825 ], [ -2.6269068, 41.51614210000001 ], [ -2.6272562, 41.51621750000001 ], [ -2.6275742, 41.5163016 ], [ -2.6278385, 41.5163876 ], [ -2.628153, 41.5165 ], [ -2.6284074, 41.5166032 ], [ -2.6286869, 41.5167321 ], [ -2.6289713, 41.516881 ], [ -2.6292337, 41.5170348 ], [ -2.6295097, 41.5172159 ], [ -2.629765, 41.5174055 ], [ -2.630027, 41.5176334 ], [ -2.6302457, 41.5178443 ], [ -2.6304489, 41.5180604 ], [ -2.6306142, 41.5182652 ], [ -2.6307754, 41.5184906 ], [ -2.6309656, 41.5187955 ], [ -2.633439, 41.523378 ], [ -2.6360483, 41.5281886 ], [ -2.6363667, 41.5287741 ], [ -2.6366402, 41.5293214 ], [ -2.6368427, 41.5297599 ], [ -2.6369818, 41.530100099999984 ], [ -2.6371207, 41.5304717 ], [ -2.6373218, 41.5310974 ], [ -2.6373793, 41.5313149 ], [ -2.6374764, 41.5317014 ], [ -2.6375675, 41.5321235 ], [ -2.6376448, 41.5326455 ], [ -2.6376944, 41.5330187 ], [ -2.6377377, 41.5335448 ], [ -2.637753, 41.5339992 ], [ -2.6377424, 41.534468099999984 ], [ -2.6377113, 41.5350069 ], [ -2.6376572, 41.5354905 ], [ -2.637566, 41.536067799999984 ], [ -2.6374964, 41.5364098 ], [ -2.6372166, 41.537625 ], [ -2.6363241, 41.5414647 ], [ -2.636273, 41.5421914 ], [ -2.6364774, 41.54353 ], [ -2.6372695, 41.5492092 ], [ -2.6372184, 41.5498975 ], [ -2.6372439, 41.5506241 ], [ -2.6351744, 41.559132200000015 ], [ -2.635251, 41.5599351 ], [ -2.6353021, 41.5613116 ], [ -2.6356087, 41.5624013 ], [ -2.637295, 41.5652879 ], [ -2.637548, 41.5659658 ], [ -2.6377549, 41.5665304 ], [ -2.6377549, 41.5675053 ], [ -2.6375505, 41.5684038 ], [ -2.636273, 41.571481199999987 ], [ -2.6359664, 41.5728575 ], [ -2.6361547, 41.5751272 ], [ -2.6378571, 41.5852612 ], [ -2.638828, 41.59112780000001 ], [ -2.6392173, 41.5935198 ] ] } },
{ "type": "Feature", "properties": { "fid": 2047, "osm_id": "1221521512", "code": 6101, "fclass": "rail", "name": "Línea Torralba-Soria", "layer": 0, "bridge": "F", "tunnel": "F", "path": "/vsizip/C:\\Users\\heras\\Downloads\\castilla-la-mancha-260419-free.gpkg.zip/castilla-la-mancha.gpkg|layername=gis_osm_railways_free", "segment_id": "segment_001" }, "geometry": { "type": "LineString", "coordinates": [ [ -2.4941599, 41.1360013 ], [ -2.4938883, 41.1361874 ], [ -2.493559, 41.136466799999987 ], [ -2.49328, 41.1367425 ], [ -2.4930417, 41.1370151 ], [ -2.4927572, 41.137446099999984 ], [ -2.4926254, 41.137709 ], [ -2.4925021, 41.1380313 ], [ -2.4924357, 41.1383899 ], [ -2.4924044, 41.138748 ], [ -2.4924359, 41.139246199999988 ], [ -2.4925182, 41.1395625 ], [ -2.4926184, 41.1398878 ], [ -2.4928677, 41.1405289 ], [ -2.4930164, 41.1409039 ], [ -2.4930918, 41.141094 ], [ -2.4933502, 41.1417455 ], [ -2.4935731, 41.142258 ], [ -2.4938436, 41.1428271 ], [ -2.4941277, 41.143353 ], [ -2.4943626, 41.1438002 ], [ -2.4948325, 41.1444588 ], [ -2.4952229, 41.1449517 ] ] } },
{ "type": "Feature", "properties": { "fid": 241, "osm_id": "37986263", "code": 6101, "fclass": "rail", "name": "Línea Torralba-Soria", "layer": 0, "bridge": "F", "tunnel": "F", "path": "/vsizip/C:\\Users\\heras\\Downloads\\castilla-y-leon-260419-free.gpkg.zip/castilla-y-leon.gpkg|layername=gis_osm_railways_free", "segment_id": "segment_001" }, "geometry": { "type": "LineString", "coordinates": [ [ -2.5771291, 41.6655821 ], [ -2.5754479, 41.6666838 ], [ -2.5747793, 41.6671832 ], [ -2.5740256, 41.6678416 ], [ -2.573323, 41.6685383 ], [ -2.5717811, 41.6702093 ], [ -2.5709661, 41.6710861 ], [ -2.5697786, 41.672353 ], [ -2.5695628, 41.672561799999983 ], [ -2.5693785, 41.6727388 ], [ -2.56912, 41.672975299999983 ], [ -2.5687935, 41.6732612 ], [ -2.5685384, 41.6734756 ], [ -2.5682564, 41.6736945 ], [ -2.5679004, 41.673969 ], [ -2.5674895, 41.6742619 ], [ -2.5667951, 41.6747122 ], [ -2.5664838, 41.6749052 ], [ -2.5661779, 41.6750804 ], [ -2.5658102, 41.6752836 ], [ -2.565338, 41.6755268 ], [ -2.5649658, 41.6757096 ], [ -2.5645474, 41.6759058 ], [ -2.5641421, 41.6760852 ], [ -2.5637547, 41.6762389 ], [ -2.5633784, 41.6763865 ], [ -2.5629769, 41.6765351 ], [ -2.5621344, 41.6768266 ], [ -2.5602165, 41.6774719 ], [ -2.5556012, 41.679033 ], [ -2.5500731, 41.6809056 ], [ -2.5474342, 41.6817998 ], [ -2.546951, 41.6819706 ], [ -2.5465198, 41.6821463 ], [ -2.5460656, 41.6823454 ], [ -2.5456622, 41.682538799999989 ], [ -2.5453338, 41.6827131 ], [ -2.5450441, 41.6828757 ], [ -2.544753, 41.6830463 ], [ -2.5444443, 41.683242300000011 ], [ -2.544152, 41.6834427 ], [ -2.5436717, 41.6837969 ], [ -2.5421584, 41.6849615 ], [ -2.5390078, 41.6873904 ], [ -2.5371364, 41.6888239 ] ] } },
{ "type": "Feature", "properties": { "fid": 4297, "osm_id": "1427668681", "code": 6101, "fclass": "rail", "name": "Línea Torralba-Soria", "layer": 0, "bridge": "F", "tunnel": "F", "path": "/vsizip/C:\\Users\\heras\\Downloads\\castilla-y-leon-260419-free.gpkg.zip/castilla-y-leon.gpkg|layername=gis_osm_railways_free", "segment_id": "segment_001" }, "geometry": { "type": "LineString", "coordinates": [ [ -2.5092598, 41.1905111 ], [ -2.508217, 41.1929827 ], [ -2.5080661, 41.1933404 ], [ -2.5076622, 41.1942744 ], [ -2.507444, 41.1947789 ], [ -2.5066301, 41.196717 ], [ -2.5062306, 41.197646 ], [ -2.5060362, 41.1981122 ], [ -2.5058445, 41.1985669 ], [ -2.5044393, 41.2018673 ], [ -2.5040024, 41.2029037 ], [ -2.5028083, 41.205736499999986 ], [ -2.502411, 41.206649799999987 ], [ -2.5011879, 41.2095239 ], [ -2.5003196, 41.211570599999988 ], [ -2.4999738, 41.2123858 ], [ -2.4997938, 41.2129723 ], [ -2.4997117, 41.2134365 ], [ -2.4996839, 41.2137525 ], [ -2.4997048, 41.2143015 ], [ -2.4997795, 41.214809799999983 ], [ -2.4999035, 41.2153046 ], [ -2.5000673, 41.2156811 ], [ -2.5003723, 41.2162313 ], [ -2.5006595, 41.216633 ], [ -2.5010539, 41.2170982 ], [ -2.5014326, 41.2174541 ], [ -2.5019799, 41.2178948 ], [ -2.503261, 41.2187443 ], [ -2.5037061, 41.2190796 ], [ -2.5041068, 41.2194503 ], [ -2.5044775, 41.219860099999977 ], [ -2.5048516, 41.22038580000001 ], [ -2.5050876, 41.220792 ], [ -2.505337, 41.2214356 ], [ -2.5054679, 41.2220055 ], [ -2.5055783, 41.2232753 ], [ -2.505692, 41.2247634 ], [ -2.5059609, 41.228255 ] ] } },
{ "type": "Feature", "properties": { "fid": 4296, "osm_id": "1427668680", "code": 6101, "fclass": "rail", "name": "Línea Torralba-Soria", "layer": 0, "bridge": "F", "tunnel": "F", "path": "/vsizip/C:\\Users\\heras\\Downloads\\castilla-y-leon-260419-free.gpkg.zip/castilla-y-leon.gpkg|layername=gis_osm_railways_free", "segment_id": "segment_001" }, "geometry": { "type": "LineString", "coordinates": [ [ -2.4952229, 41.1449517 ], [ -2.4999813, 41.1508768 ], [ -2.5009829, 41.1521239 ], [ -2.5015213, 41.1528962 ], [ -2.5034267, 41.1569186 ], [ -2.5038528, 41.1574349 ], [ -2.504593, 41.1582242 ], [ -2.5050562, 41.1587131 ], [ -2.5061632, 41.1598815 ], [ -2.5088799, 41.1627489 ], [ -2.5096261, 41.163405 ], [ -2.5099169, 41.1636228 ], [ -2.5102282, 41.1638379 ], [ -2.5108027, 41.1641597 ], [ -2.5114582, 41.1644401 ], [ -2.5116085, 41.1645044 ], [ -2.512113, 41.1646674 ], [ -2.5124249, 41.1647599 ], [ -2.5128722, 41.1648711 ], [ -2.5133536, 41.1649549 ], [ -2.5137049, 41.1649941 ], [ -2.5143537, 41.165048 ], [ -2.5151819, 41.1651036 ], [ -2.515683, 41.165169 ], [ -2.5161257, 41.1652463 ], [ -2.5167542, 41.1654199 ], [ -2.5171271, 41.1655628 ], [ -2.5174951, 41.165728799999989 ], [ -2.517965, 41.1659993 ], [ -2.518222, 41.166185 ], [ -2.5184737, 41.1663922 ], [ -2.5188186, 41.1667262 ], [ -2.5223006, 41.1702555 ], [ -2.5246394, 41.172626 ], [ -2.5281671, 41.1762072 ], [ -2.5294679, 41.1775214 ], [ -2.5296745, 41.177739499999987 ], [ -2.5298166, 41.1779211 ], [ -2.5299937, 41.1781755 ], [ -2.5301278, 41.1784036 ], [ -2.5302324, 41.1786277 ], [ -2.5303209, 41.1788518 ], [ -2.5303826, 41.179086 ], [ -2.5304255, 41.1793323 ], [ -2.5304469, 41.1795019 ], [ -2.530455, 41.1796916 ], [ -2.5304563, 41.17991270000001 ], [ -2.5304268, 41.1801135 ], [ -2.5303933, 41.1803114 ], [ -2.5303504, 41.180469899999984 ], [ -2.5302525, 41.1807525 ], [ -2.5301278, 41.1810381 ], [ -2.5299963, 41.1812662 ], [ -2.529822, 41.1815166 ], [ -2.5296825, 41.1816801 ], [ -2.5294304, 41.1819566 ], [ -2.5292078, 41.1821565 ], [ -2.5289556, 41.1823462 ], [ -2.5287062, 41.1825158 ], [ -2.5284943, 41.1826389 ], [ -2.5282207, 41.1827863 ], [ -2.5279847, 41.182887199999989 ], [ -2.5277191, 41.1829922 ], [ -2.5273356, 41.1831113 ], [ -2.5270084, 41.1831921 ], [ -2.5257679, 41.1834511 ], [ -2.5256688, 41.1834718 ], [ -2.5241951, 41.18377 ], [ -2.52032, 41.184554 ], [ -2.5194074, 41.1847534 ], [ -2.5168522, 41.1852773 ], [ -2.5152442, 41.1856154 ], [ -2.5147667, 41.1857266 ], [ -2.5143389, 41.1858576 ], [ -2.5139125, 41.186004 ], [ -2.5136188, 41.1861208 ], [ -2.5132996, 41.1862553 ], [ -2.5128979, 41.1864516 ], [ -2.5125179, 41.186655899999984 ], [ -2.5120966, 41.1869149 ], [ -2.5119088, 41.1870514 ], [ -2.5116958, 41.1872062 ], [ -2.5113771, 41.1874629 ], [ -2.5110789, 41.1877318 ], [ -2.5107595, 41.1880578 ], [ -2.5106107, 41.1882314 ], [ -2.5104619, 41.1884096 ], [ -2.5101963, 41.1887583 ], [ -2.5100648, 41.188947 ], [ -2.5099421, 41.1891283 ], [ -2.5097832, 41.1893941 ], [ -2.5096486, 41.1896462 ], [ -2.5092598, 41.1905111 ] ] } },
{ "type": "Feature", "properties": { "fid": 244, "osm_id": "38146678", "code": 6101, "fclass": "rail", "name": "Línea Torralba-Soria", "layer": 0, "bridge": "F", "tunnel": "F", "path": "/vsizip/C:\\Users\\heras\\Downloads\\castilla-y-leon-260419-free.gpkg.zip/castilla-y-leon.gpkg|layername=gis_osm_railways_free", "segment_id": "segment_001" }, "geometry": { "type": "LineString", "coordinates": [ [ -2.484631, 41.7438174 ], [ -2.4833059, 41.7446681 ], [ -2.4831009, 41.7448413 ], [ -2.4829741, 41.7449539 ], [ -2.4828652, 41.7450652 ] ] } },
{ "type": "Feature", "properties": { "fid": 243, "osm_id": "38146677", "code": 6101, "fclass": "rail", "name": "Línea Torralba-Soria", "layer": 1, "bridge": "T", "tunnel": "F", "path": "/vsizip/C:\\Users\\heras\\Downloads\\castilla-y-leon-260419-free.gpkg.zip/castilla-y-leon.gpkg|layername=gis_osm_railways_free", "segment_id": "segment_001" }, "geometry": { "type": "LineString", "coordinates": [ [ -2.4847884, 41.7436991 ], [ -2.484631, 41.7438174 ] ] } },
{ "type": "Feature", "properties": { "fid": 242, "osm_id": "37986582", "code": 6101, "fclass": "rail", "name": "Línea Torralba-Soria", "layer": 0, "bridge": "F", "tunnel": "F", "path": "/vsizip/C:\\Users\\heras\\Downloads\\castilla-y-leon-260419-free.gpkg.zip/castilla-y-leon.gpkg|layername=gis_osm_railways_free", "segment_id": "segment_001" }, "geometry": { "type": "LineString", "coordinates": [ [ -2.5073008, 41.4703132 ], [ -2.5090966, 41.47221170000001 ], [ -2.5108924, 41.4741102 ], [ -2.516012, 41.4795368 ], [ -2.518281, 41.4819418 ], [ -2.5211311, 41.4849264 ], [ -2.522613, 41.4865157 ], [ -2.523435, 41.4873818 ], [ -2.5237878, 41.4877519 ], [ -2.5244398, 41.4884359 ], [ -2.5252453, 41.4892851 ], [ -2.5258856, 41.4899639 ], [ -2.5264022, 41.4905246 ], [ -2.5269719, 41.4911585 ], [ -2.5272635, 41.4914843 ], [ -2.527552, 41.4917762 ] ] } },
{ "type": "Feature", "properties": { "fid": 4301, "osm_id": "1427668685", "code": 6101, "fclass": "rail", "name": "Línea Torralba-Soria", "layer": 0, "bridge": "F", "tunnel": "F", "path": "/vsizip/C:\\Users\\heras\\Downloads\\castilla-y-leon-260419-free.gpkg.zip/castilla-y-leon.gpkg|layername=gis_osm_railways_free", "segment_id": "segment_001" }, "geometry": { "type": "LineString", "coordinates": [ [ -2.4404348, 41.2663714 ], [ -2.4406813, 41.2670149 ], [ -2.4409316, 41.267668 ] ] } },
{ "type": "Feature", "properties": { "fid": 4300, "osm_id": "1427668684", "code": 6101, "fclass": "rail", "name": "Línea Torralba-Soria", "layer": 0, "bridge": "F", "tunnel": "F", "path": "/vsizip/C:\\Users\\heras\\Downloads\\castilla-y-leon-260419-free.gpkg.zip/castilla-y-leon.gpkg|layername=gis_osm_railways_free", "segment_id": "segment_001" }, "geometry": { "type": "LineString", "coordinates": [ [ -2.4407539, 41.2599729 ], [ -2.4405318, 41.2601326 ], [ -2.4403355, 41.2602995 ], [ -2.4401075, 41.2605132 ], [ -2.4399063, 41.2607431 ], [ -2.4397334, 41.2609648 ], [ -2.4395978, 41.261176600000013 ], [ -2.4394691, 41.2614125 ], [ -2.4393741, 41.2616393 ], [ -2.4392921, 41.261900399999988 ], [ -2.4392357, 41.2621585 ], [ -2.4392089, 41.2623359 ], [ -2.4391964, 41.2624812 ], [ -2.4391955, 41.262727 ], [ -2.4392143, 41.262967 ], [ -2.4392653, 41.263231099999985 ], [ -2.4393269, 41.2634408 ], [ -2.4394658, 41.26384130000001 ], [ -2.4401038, 41.265507 ], [ -2.4404348, 41.2663714 ] ] } },
{ "type": "Feature", "properties": { "fid": 179, "osm_id": "28307124", "code": 6101, "fclass": "rail", "name": "Línea Torralba-Soria", "layer": 0, "bridge": "F", "tunnel": "F", "path": "/vsizip/C:\\Users\\heras\\Downloads\\castilla-y-leon-260419-free.gpkg.zip/castilla-y-leon.gpkg|layername=gis_osm_railways_free", "segment_id": "segment_001" }, "geometry": { "type": "LineString", "coordinates": [ [ -2.5259091, 41.697419 ], [ -2.5255477, 41.6977236 ], [ -2.5249953, 41.6983143 ], [ -2.5247075, 41.6987616 ], [ -2.5244328, 41.699243 ], [ -2.5242148, 41.6997969 ], [ -2.524114, 41.7002029 ], [ -2.5240734, 41.7004982 ], [ -2.5240486, 41.700870700000017 ], [ -2.5240513, 41.7013189 ], [ -2.5240787, 41.7017231 ], [ -2.5244686, 41.7048605 ], [ -2.5245376, 41.7056602 ], [ -2.524571, 41.7061392 ], [ -2.5245647, 41.7065971 ], [ -2.5244702, 41.7070448 ], [ -2.5243744, 41.707378099999985 ], [ -2.52411, 41.7079469 ], [ -2.5239499, 41.70821 ], [ -2.5238673, 41.7083326 ], [ -2.5235523, 41.708724299999986 ], [ -2.5232204, 41.7090766 ], [ -2.5228549, 41.7093635 ], [ -2.5225959, 41.709545 ], [ -2.5221631, 41.7098021 ], [ -2.521851, 41.7099676 ], [ -2.5213545, 41.710184099999985 ], [ -2.5207927, 41.7103819 ], [ -2.5185844, 41.711118400000011 ], [ -2.5179056, 41.7113507 ], [ -2.5100579, 41.7140357 ], [ -2.5044965, 41.7158753 ], [ -2.5032969, 41.7164305 ], [ -2.5027028, 41.7168355 ], [ -2.5021665, 41.7172421 ], [ -2.5015421, 41.7179493 ], [ -2.5013548, 41.7183143 ], [ -2.5006593, 41.719669 ], [ -2.4975479, 41.7257919 ], [ -2.4973111, 41.7265553 ], [ -2.4972572, 41.7269972 ], [ -2.4973111, 41.7291746 ], [ -2.4970742, 41.7300905 ], [ -2.4960299, 41.7319304 ], [ -2.4954916, 41.732557 ], [ -2.491842, 41.7357465 ], [ -2.4887796, 41.737831 ] ] } },
{ "type": "Feature", "properties": { "fid": 4299, "osm_id": "1427668683", "code": 6101, "fclass": "rail", "name": "Línea Torralba-Soria", "layer": 0, "bridge": "F", "tunnel": "F", "path": "/vsizip/C:\\Users\\heras\\Downloads\\castilla-y-leon-260419-free.gpkg.zip/castilla-y-leon.gpkg|layername=gis_osm_railways_free", "segment_id": "segment_001" }, "geometry": { "type": "LineString", "coordinates": [ [ -2.4558283, 41.2631494 ], [ -2.4549698, 41.2633893 ], [ -2.4542149, 41.263508 ], [ -2.4534569, 41.2635283 ], [ -2.4527076, 41.263468099999983 ], [ -2.4518994, 41.263276099999985 ], [ -2.451407, 41.2631123 ], [ -2.4509626, 41.262905 ], [ -2.450464, 41.2625963 ], [ -2.4500497, 41.2622851 ], [ -2.4484288, 41.2609652 ], [ -2.4476042, 41.2602955 ], [ -2.4473358, 41.2600838 ], [ -2.4471536, 41.2599527 ], [ -2.4469095, 41.2597954 ], [ -2.4465743, 41.2596119 ], [ -2.4462237, 41.2594571 ], [ -2.4459144, 41.2593418 ], [ -2.4455979, 41.259245 ], [ -2.4452523, 41.2591643 ], [ -2.4448657, 41.2590917 ], [ -2.4444473, 41.2590433 ], [ -2.444053, 41.2590272 ], [ -2.4436491, 41.259036 ], [ -2.4432832, 41.259061499999987 ], [ -2.4429292, 41.2591099 ], [ -2.4424682, 41.2592143 ], [ -2.4421433, 41.2593014 ], [ -2.441757, 41.2594406 ], [ -2.4412782, 41.2596514 ], [ -2.4409363, 41.2598539 ], [ -2.4408236, 41.2599265 ] ] } },
{ "type": "Feature", "properties": { "fid": 4298, "osm_id": "1427668682", "code": 6101, "fclass": "rail", "name": "Línea Torralba-Soria", "layer": 0, "bridge": "F", "tunnel": "F", "path": "/vsizip/C:\\Users\\heras\\Downloads\\castilla-y-leon-260419-free.gpkg.zip/castilla-y-leon.gpkg|layername=gis_osm_railways_free", "segment_id": "segment_001" }, "geometry": { "type": "LineString", "coordinates": [ [ -2.5059609, 41.228255 ], [ -2.506017, 41.2290497 ], [ -2.5060818, 41.2299173 ], [ -2.5060925, 41.2301533 ], [ -2.5060883, 41.2303548 ], [ -2.5060549, 41.2306193 ], [ -2.5060115, 41.2308438 ], [ -2.5059369, 41.2311115 ], [ -2.505842, 41.2313162 ], [ -2.5057545, 41.2315129 ], [ -2.5056365, 41.231723100000011 ], [ -2.5054179, 41.2320343 ], [ -2.5051434, 41.2323261 ], [ -2.5045363, 41.2328317 ], [ -2.5039812, 41.2332031 ], [ -2.5032297, 41.2337031 ], [ -2.5029597, 41.2339193 ], [ -2.502729, 41.2341351 ], [ -2.5025151, 41.234374699999989 ], [ -2.5023508, 41.234597 ], [ -2.502206, 41.234835 ], [ -2.5020657, 41.2351078 ], [ -2.5015003, 41.2363977 ], [ -2.5005192, 41.238636 ], [ -2.5003338, 41.2390193 ], [ -2.5002117, 41.239226 ], [ -2.500083, 41.2394106 ], [ -2.4999212, 41.239606 ], [ -2.499745, 41.239798799999988 ], [ -2.499509, 41.2400135 ], [ -2.4992971, 41.2401871 ], [ -2.499083, 41.2403383 ], [ -2.4987996, 41.2405169 ], [ -2.4984562, 41.2406984 ], [ -2.497992, 41.240923700000018 ], [ -2.497483, 41.2411751 ], [ -2.497268, 41.2412813 ], [ -2.4969918, 41.2414345 ], [ -2.4967684, 41.2415668 ], [ -2.496517, 41.2417371 ], [ -2.4962944, 41.2419004 ], [ -2.4961344, 41.2420335 ], [ -2.4959457, 41.242203 ], [ -2.4957767, 41.2423724 ], [ -2.4955755, 41.2425942 ], [ -2.4953416, 41.2428798 ] ] } },
{ "type": "Feature", "properties": { "fid": 3510, "osm_id": "957628647", "code": 6101, "fclass": "rail", "name": "Línea Torralba-Soria", "layer": 0, "bridge": "F", "tunnel": "F", "path": "/vsizip/C:\\Users\\heras\\Downloads\\castilla-y-leon-260419-free.gpkg.zip/castilla-y-leon.gpkg|layername=gis_osm_railways_free", "segment_id": "segment_001" }, "geometry": { "type": "LineString", "coordinates": [ [ -2.4811389, 41.7526549 ], [ -2.4809954, 41.7527718 ], [ -2.4808433, 41.7528933 ], [ -2.4806838, 41.7529997 ], [ -2.4805605, 41.7530705 ], [ -2.4803761, 41.7531677 ], [ -2.4801599, 41.7532755 ] ] } },
{ "type": "Feature", "properties": { "fid": 3165, "osm_id": "696484305", "code": 6101, "fclass": "rail", "name": "Línea Torralba-Soria", "layer": 1, "bridge": "T", "tunnel": "F", "path": "/vsizip/C:\\Users\\heras\\Downloads\\castilla-y-leon-260419-free.gpkg.zip/castilla-y-leon.gpkg|layername=gis_osm_railways_free", "segment_id": "segment_001" }, "geometry": { "type": "LineString", "coordinates": [ [ -2.4408236, 41.2599265 ], [ -2.4407539, 41.2599729 ] ] } },
{ "type": "Feature", "properties": { "fid": 301, "osm_id": "42207029", "code": 6101, "fclass": "rail", "name": "Línea Torralba-Soria", "layer": 1, "bridge": "T", "tunnel": "F", "path": "/vsizip/C:\\Users\\heras\\Downloads\\castilla-y-leon-260419-free.gpkg.zip/castilla-y-leon.gpkg|layername=gis_osm_railways_free", "segment_id": "segment_001" }, "geometry": { "type": "LineString", "coordinates": [ [ -2.6082777, 41.6420987 ], [ -2.6081515, 41.6423852 ] ] } },
{ "type": "Feature", "properties": { "fid": 4321, "osm_id": "1432621338", "code": 6101, "fclass": "rail", "name": "Línea Torralba-Soria", "layer": 0, "bridge": "F", "tunnel": "F", "path": "/vsizip/C:\\Users\\heras\\Downloads\\castilla-y-leon-260419-free.gpkg.zip/castilla-y-leon.gpkg|layername=gis_osm_railways_free", "segment_id": "segment_001" }, "geometry": { "type": "LineString", "coordinates": [ [ -2.5957113, 41.6514704 ], [ -2.5949408, 41.6517513 ], [ -2.5943819, 41.6520148 ], [ -2.5939443, 41.652285 ], [ -2.5933806, 41.652697 ], [ -2.5872319, 41.658154299999985 ], [ -2.5844885, 41.6606174 ], [ -2.5819304, 41.662872299999989 ], [ -2.5818399, 41.6629367 ], [ -2.5805507, 41.6638046 ], [ -2.5771291, 41.6655821 ] ] } },
{ "type": "Feature", "properties": { "fid": 4320, "osm_id": "1432621337", "code": 6101, "fclass": "rail", "name": "Línea Torralba-Soria", "layer": 0, "bridge": "F", "tunnel": "F", "path": "/vsizip/C:\\Users\\heras\\Downloads\\castilla-y-leon-260419-free.gpkg.zip/castilla-y-leon.gpkg|layername=gis_osm_railways_free", "segment_id": "segment_001" }, "geometry": { "type": "LineString", "coordinates": [ [ -2.6237276, 41.6168916 ], [ -2.6187963, 41.6210947 ], [ -2.6181381, 41.6216591 ], [ -2.6179532, 41.6218351 ], [ -2.6178117, 41.6219843 ], [ -2.6176654, 41.622146699999988 ], [ -2.6175329, 41.622313599999984 ], [ -2.617348, 41.622580799999987 ], [ -2.6172085, 41.6228129 ], [ -2.6170281, 41.623168 ] ] } },
{ "type": "Feature", "properties": { "fid": 4319, "osm_id": "1432621336", "code": 6101, "fclass": "rail", "name": "Línea Torralba-Soria", "layer": 0, "bridge": "F", "tunnel": "F", "path": "/vsizip/C:\\Users\\heras\\Downloads\\castilla-y-leon-260419-free.gpkg.zip/castilla-y-leon.gpkg|layername=gis_osm_railways_free", "segment_id": "segment_001" }, "geometry": { "type": "LineString", "coordinates": [ [ -2.6081515, 41.6423852 ], [ -2.6069617, 41.6449801 ], [ -2.6063625, 41.6460001 ], [ -2.6051862, 41.6473435 ], [ -2.6044766, 41.6479473 ], [ -2.6037152, 41.6485236 ], [ -2.6023417, 41.6492919 ], [ -2.6008452, 41.6499439 ], [ -2.5972276, 41.6510236 ], [ -2.5957113, 41.6514704 ] ] } },
{ "type": "Feature", "properties": { "fid": 4318, "osm_id": "1432621335", "code": 6101, "fclass": "rail", "name": "Línea Torralba-Soria", "layer": 0, "bridge": "F", "tunnel": "F", "path": "/vsizip/C:\\Users\\heras\\Downloads\\castilla-y-leon-260419-free.gpkg.zip/castilla-y-leon.gpkg|layername=gis_osm_railways_free", "segment_id": "segment_001" }, "geometry": { "type": "LineString", "coordinates": [ [ -2.6392173, 41.5935198 ], [ -2.6395649, 41.5956554 ], [ -2.6399039, 41.5980389 ], [ -2.6399639, 41.5984821 ], [ -2.639987, 41.598805699999986 ], [ -2.6399824, 41.5990624 ], [ -2.6399624, 41.5993007 ], [ -2.6399147, 41.5995621 ], [ -2.6398362, 41.5998625 ], [ -2.6397592, 41.6000859 ], [ -2.639617, 41.6004175 ], [ -2.6394382, 41.6007295 ], [ -2.6392294, 41.601035 ], [ -2.6390723, 41.6012406 ], [ -2.6388324, 41.601505400000015 ], [ -2.6385583, 41.601761 ], [ -2.6348892, 41.604924 ], [ -2.633029, 41.6065281 ], [ -2.6326356, 41.6068654 ], [ -2.6322731, 41.607186 ], [ -2.6320152, 41.6074352 ], [ -2.6318397, 41.6076206 ], [ -2.6316842, 41.6078001 ], [ -2.6315272, 41.6080062 ], [ -2.6314015, 41.608183399999987 ], [ -2.6310788, 41.6086841 ], [ -2.6292197, 41.6116298 ], [ -2.6288098, 41.6122786 ], [ -2.6286171, 41.612553 ], [ -2.6284776, 41.6127265 ], [ -2.6282936, 41.612926 ], [ -2.6280895, 41.6131496 ], [ -2.6278925, 41.6133328 ], [ -2.6276143, 41.6135695 ], [ -2.6269376, 41.6141497 ], [ -2.6238316, 41.6167979 ] ] } },
{ "type": "Feature", "properties": { "fid": 2371, "osm_id": "380468947", "code": 6101, "fclass": "rail", "name": "Línea Torralba-Soria", "layer": 1, "bridge": "T", "tunnel": "F", "path": "/vsizip/C:\\Users\\heras\\Downloads\\castilla-y-leon-260419-free.gpkg.zip/castilla-y-leon.gpkg|layername=gis_osm_railways_free", "segment_id": "segment_001" }, "geometry": { "type": "LineString", "coordinates": [ [ -2.465798, 41.4349927 ], [ -2.4659419, 41.4351927 ] ] } },
{ "type": "Feature", "properties": { "fid": 4323, "osm_id": "1432621340", "code": 6101, "fclass": "rail", "name": "Línea Torralba-Soria", "layer": 0, "bridge": "F", "tunnel": "F", "path": "/vsizip/C:\\Users\\heras\\Downloads\\castilla-y-leon-260419-free.gpkg.zip/castilla-y-leon.gpkg|layername=gis_osm_railways_free", "segment_id": "segment_001" }, "geometry": { "type": "LineString", "coordinates": [ [ -2.4887796, 41.737831 ], [ -2.4883398, 41.7381952 ], [ -2.4880481, 41.7384669 ], [ -2.48772, 41.7388685 ], [ -2.4874023, 41.7393881 ], [ -2.4872039, 41.739777899999986 ], [ -2.486185, 41.7420953 ], [ -2.486038, 41.7423768 ], [ -2.4858031, 41.7427097 ], [ -2.4854651, 41.7431101 ], [ -2.4851272, 41.7434286 ], [ -2.4847884, 41.7436991 ] ] } },
{ "type": "Feature", "properties": { "fid": 4322, "osm_id": "1432621339", "code": 6101, "fclass": "rail", "name": "Línea Torralba-Soria", "layer": 0, "bridge": "F", "tunnel": "F", "path": "/vsizip/C:\\Users\\heras\\Downloads\\castilla-y-leon-260419-free.gpkg.zip/castilla-y-leon.gpkg|layername=gis_osm_railways_free", "segment_id": "segment_001" }, "geometry": { "type": "LineString", "coordinates": [ [ -2.536992, 41.688937899999985 ], [ -2.5358341, 41.6898156 ], [ -2.5346883, 41.6906569 ], [ -2.5319061, 41.6927847 ], [ -2.5308931, 41.6935499 ], [ -2.5288539, 41.6951556 ], [ -2.5280826, 41.6957629 ], [ -2.5259091, 41.697419 ] ] } }
]
}
